IRIDIUM 150             
1 43257U 18030J   25244.16693729 -.00000025  00000+0 -16046-4 0  9992
2 43257  86.3933  51.2731 0002260  93.5929 266.5525 14.34217423388732
IRIDIUM 143             
1 43258U 18030K   25244.21768940  .00000171  00000+0  54099-4 0  9997
2 43258  86.3936  51.3331 0002577  92.9744 267.1747 14.34218040388674
IRIDIUM 161             
1 43478U 18047C   25244.26740156  .00000730  00000+0  21093-3 0  9991
2 43478  86.4514 209.1417 0002059  85.7533 274.3904 14.43283466383461
IRIDIUM 152             
1 43479U 18047D   25244.26016370  .00000400  00000+0  13581-3 0  9993
2 43479  86.3988 209.0056 0002139  89.5145 270.6296 14.34218317381075
IRIDIUM 147             
1 43480U 18047E   25244.26650757  .00000036  00000+0  59500-5 0  9996
2 43480  86.3989 209.0031 0002199  83.0715 277.0731 14.34217706381075
IRIDIUM 110             
1 43481U 18047F   25244.27284879  .00000050  00000+0  10618-4 0  9998
2 43481  86.3992 209.0847 0001781  81.7287 278.4111 14.34217655381069
IRIDIUM 162             
1 43482U 18047G   25244.26111119  .00000735  00000+0  21265-3 0  9993
2 43482  86.4513 209.0389 0001977  91.0197 269.1231 14.43281023383457
IRIDIUM 160             
1 43569U 18061A   25243.86984017  .00000215  00000+0  69616-4 0  9991
2 43569  86.4043 177.6902 0002001  81.7917 278.3505 14.34219312371902
